ONEWEB-0098             
1 45442U 20020U   25005.75287676 -.00000201  00000+0 -60413-3 0  9994
2 45442  87.8913 126.1754 0001674 114.0280 246.1023 13.11417115233514
ONEWEB-0055             
1 45443U 20020V   25006.04366859 -.00000468  00000+0 -13553-2 0  9996
2 45443  87.8908 126.1202 0001528 107.9760 252.1534 13.11418857233539
ONEWEB-0093             
1 45444U 20020W   25005.79019582  .00000305  00000+0  82363-3 0  9990
2 45444  87.8912 126.1537 0001375 110.2542 249.8734 13.11414149233558
ONEWEB-0029             
1 45445U 20020X   25006.03772647 -.00000347  00000+0 -10150-2 0  9999
2 45445  87.8912 126.1181 0001394 101.3247 258.8038 13.11414313233570
ONEWEB-0068             
1 45446U 20020Y   25006.32347358  .00011591  00000+0  32651-1 0  9999
2 45446  87.8915 126.0494 0001548  95.5415 264.5890 13.11370983233554
ONEWEB-0046             
1 45447U 20020Z   25005.78172326  .00000587  00000+0  16208-2 0  9994
2 45447  87.8910 126.1665 0001618  94.0720 266.0593 13.11418562233487
ONEWEB-0063             
1 45448U 20020AA  25006.03941778 -.00000409  00000+0 -11905-2 0  9993
2 45448  87.8911 126.1145 0001787  99.1619 260.9711 13.11414645233609
ONEWEB-0019             
1 45449U 20020AB  25006.09030022  .00000497  00000+0  13652-2 0  9997
2 45449  87.8914 126.1156 0001719 108.2567 251.8748 13.11414625233465
